{
    "links": {
        "self": "http://www.neowsapp.com/rest/v1/neo/3717045?api_key=iIulBulltgU6a56xZRHN4H3l9WmuAYTsLGpBGhQ2"
    },
    "id": "3717045",
    "neo_reference_id": "3717045",
    "name": "(2015 HP10)",
    "designation": "2015 HP10",
    "nasa_jpl_url": "http://ssd.jpl.nasa.gov/sbdb.cgi?sstr=3717045",
    "absolute_magnitude_h": 25.1,
    "estimated_diameter": {
        "kilometers": {
            "estimated_diameter_min": 0.0253837029,
            "estimated_diameter_max": 0.0567596853
        },
        "meters": {
            "estimated_diameter_min": 25.3837029364,
            "estimated_diameter_max": 56.7596852866
        },
        "miles": {
            "estimated_diameter_min": 0.0157726969,
            "estimated_diameter_max": 0.0352688224
        },
        "feet": {
            "estimated_diameter_min": 83.279867942,
            "estimated_diameter_max": 186.2194458756
        }
    },
    "is_potentially_hazardous_asteroid": false,
    "close_approach_data": [
        {
            "close_approach_date": "2015-04-11",
            "close_approach_date_full": "2015-Apr-11 06:03",
            "epoch_date_close_approach": 1428732180000,
            "relative_velocity": {
                "kilometers_per_second": "7.8537697836",
                "kilometers_per_hour": "28273.5712208153",
                "miles_per_hour": "17568.0976288449"
            },
            "miss_distance": {
                "astronomical": "0.2167208876",
                "lunar": "84.3044252764",
                "kilometers": "32420983.169469412",
                "miles": "20145464.7838934056"
            },
            "orbiting_body": "Earth"
        }
    ],
    "orbital_data": {
        "orbit_id": "3",
        "orbit_determination_date": "2017-04-06 08:34:10",
        "first_observation_date": "2015-04-19",
        "last_observation_date": "2015-04-22",
        "data_arc_in_days": 3,
        "observations_used": 15,
        "orbit_uncertainty": "9",
        "minimum_orbit_intersection": ".210862",
        "jupiter_tisserand_invariant": "4.965",
        "epoch_osculation": "2457133.5",
        "eccentricity": ".09026486440607834",
        "semi_major_axis": "1.2992779463856",
        "inclination": "15.21907345255767",
        "ascending_node_longitude": "23.21084751356956",
        "orbital_period": "540.9430273959715",
        "perihelion_distance": "1.181998798729296",
        "perihelion_argument": "130.0852661137704",
        "aphelion_distance": "1.416557094041904",
        "perihelion_time": "2457061.313241678668",
        "mean_anomaly": "48.04060997103269",
        "mean_motion": ".6655044649211814",
        "equinox": "J2000",
        "orbit_class": {
            "orbit_class_type": "AMO",
            "orbit_class_description": "Near-Earth asteroid orbits similar to that of 1221 Amor",
            "orbit_class_range": "1.017 AU < q (perihelion) < 1.3 AU"
        }
    },
    "is_sentry_object": false
}